SL-3 R/B                
1 13403U 82079B   26085.20262240  .00005541  00000+0  21887-3 0  9999
2 13403  81.1481 173.5803 0025548 110.4016 249.9965 15.25018308380211
SL-14 R/B               
1 13553U 82092B   26085.13218556  .00000426  00000+0  45046-4 0  9994
2 13553  82.5663 126.0183 0018903 244.6927 169.4261 14.86680782331371
SL-3 R/B                
1 13819U 83010B   26085.12924315  .00014961  00000+0  29510-3 0  9992
2 13819  81.1051 342.0861 0016291 355.6276   4.4823 15.46905025360486
SL-3 R/B                
1 14208U 83075B   26085.14117542  .00010608  00000+0  27654-3 0  9995
2 14208  97.6146  90.3465 0021941 165.7060 194.4810 15.38795684332684
COSMOS 1536             
1 14699U 84013A   26085.06969457  .00005751  00000+0  23535-3 0  9990
2 14699  82.5421  91.5611 0013080 218.6006 141.4297 15.24039935275116
SL-14 R/B               
1 14820U 84027B   26084.65202483  .00000515  00000+0  56047-4 0  9992
2 14820  82.5409 230.0399 0016491 281.5821  78.3544 14.85992360250004
SL-8 R/B                
1 15483U 85006B   26084.45140903  .00000325  00000+0  11625-3 0  9993
2 15483  74.0444 232.1428 0017810 145.5024 270.1591 14.37794350156297
SL-12 R/B(2)            
1 15772U 85042D   26085.08711629  .00000126  00000+0  78089-4 0  9990
2 15772  71.1080  53.0826 0032856 100.9551 332.4890 14.21986920116728
SL-14 R/B               
1 15945U 85069B   26085.03585093  .00000495  00000+0  53053-4 0  9993
2 15945  82.5304   9.5663 0019858 134.7998 225.4837 14.86450328175262
SL-16 R/B               
1 16182U 85097B   26085.08651544  .00000062  00000+0  54944-4 0  9998
2 16182  71.0009 106.0330 0009505 240.5626 181.6753 14.16603325 89553
SL-14 R/B               
1 16496U 86006B   26084.94141600  .00000851  00000+0  87827-4 0  9990
2 16496  82.5246 244.4375 0075588 217.9602 141.6275 14.86838959151626
COSMOS 1743             
1 16719U 86034A   26085.20005903  .00042433  00000+0  52563-3 0  9994
2 16719  82.5305  56.4844 0003726 179.1804 180.9460 15.59875785182827
