CCSDS_OMM_VERS = 2.0
CREATION_DATE  = 
ORIGINATOR     = 

OBJECT_NAME    = SL-3 R/B
OBJECT_ID      = 1982-079B
CENTER_NAME    = EARTH
REF_FRAME      = TEME
TIME_SYSTEM    = UTC
MEAN_ELEMENT_THEORY = SGP/SGP4

EPOCH          = 2026-03-26T04:51:46.575360
MEAN_MOTION    = 15.25018308
ECCENTRICITY   = .0025548
INCLINATION    = 81.1481
RA_OF_ASC_NODE = 173.5803
ARG_OF_PERICENTER = 110.4016
MEAN_ANOMALY   = 249.9965

EPHEMERIS_TYPE = 0
CLASSIFICATION_TYPE = U
NORAD_CAT_ID   = 13403
ELEMENT_SET_NO = 999
REV_AT_EPOCH   = 38021
BSTAR          = .21887E-3
MEAN_MOTION_DOT = .5541E-4
MEAN_MOTION_DDOT = 0

CCSDS_OMM_VERS = 2.0
CREATION_DATE  = 
ORIGINATOR     = 

OBJECT_NAME    = SL-14 R/B
OBJECT_ID      = 1982-092B
CENTER_NAME    = EARTH
REF_FRAME      = TEME
TIME_SYSTEM    = UTC
MEAN_ELEMENT_THEORY = SGP/SGP4

EPOCH          = 2026-03-26T03:10:20.832384
MEAN_MOTION    = 14.86680782
ECCENTRICITY   = .0018903
INCLINATION    = 82.5663
RA_OF_ASC_NODE = 126.0183
ARG_OF_PERICENTER = 244.6927
MEAN_ANOMALY   = 169.4261

EPHEMERIS_TYPE = 0
CLASSIFICATION_TYPE = U
NORAD_CAT_ID   = 13553
ELEMENT_SET_NO = 999
REV_AT_EPOCH   = 33137
BSTAR          = .45046E-4
MEAN_MOTION_DOT = .426E-5
MEAN_MOTION_DDOT = 0

CCSDS_OMM_VERS = 2.0
CREATION_DATE  = 
ORIGINATOR     = 

OBJECT_NAME    = SL-3 R/B
OBJECT_ID      = 1983-010B
CENTER_NAME    = EARTH
REF_FRAME      = TEME
TIME_SYSTEM    = UTC
MEAN_ELEMENT_THEORY = SGP/SGP4

EPOCH          = 2026-03-26T03:06:06.608160
MEAN_MOTION    = 15.46905025
ECCENTRICITY   = .0016291
INCLINATION    = 81.1051
RA_OF_ASC_NODE = 342.0861
ARG_OF_PERICENTER = 355.6276
MEAN_ANOMALY   = 4.4823

EPHEMERIS_TYPE = 0
CLASSIFICATION_TYPE = U
NORAD_CAT_ID   = 13819
ELEMENT_SET_NO = 999
REV_AT_EPOCH   = 36048
BSTAR          = .2951E-3
MEAN_MOTION_DOT = .14961E-3
MEAN_MOTION_DDOT = 0

CCSDS_OMM_VERS = 2.0
CREATION_DATE  = 
ORIGINATOR     = 

OBJECT_NAME    = SL-3 R/B
OBJECT_ID      = 1983-075B
CENTER_NAME    = EARTH
REF_FRAME      = TEME
TIME_SYSTEM    = UTC
MEAN_ELEMENT_THEORY = SGP/SGP4

EPOCH          = 2026-03-26T03:23:17.556288
MEAN_MOTION    = 15.38795684
ECCENTRICITY   = .0021941
INCLINATION    = 97.6146
RA_OF_ASC_NODE = 90.3465
ARG_OF_PERICENTER = 165.7060
MEAN_ANOMALY   = 194.4810

EPHEMERIS_TYPE = 0
CLASSIFICATION_TYPE = U
NORAD_CAT_ID   = 14208
ELEMENT_SET_NO = 999
REV_AT_EPOCH   = 33268
BSTAR          = .27654E-3
MEAN_MOTION_DOT = .10608E-3
MEAN_MOTION_DDOT = 0

CCSDS_OMM_VERS = 2.0
CREATION_DATE  = 
ORIGINATOR     = 

OBJECT_NAME    = COSMOS 1536
OBJECT_ID      = 1984-013A
CENTER_NAME    = EARTH
REF_FRAME      = TEME
TIME_SYSTEM    = UTC
MEAN_ELEMENT_THEORY = SGP/SGP4

EPOCH          = 2026-03-26T01:40:21.610848
MEAN_MOTION    = 15.24039935
ECCENTRICITY   = .001308
INCLINATION    = 82.5421
RA_OF_ASC_NODE = 91.5611
ARG_OF_PERICENTER = 218.6006
MEAN_ANOMALY   = 141.4297

EPHEMERIS_TYPE = 0
CLASSIFICATION_TYPE = U
NORAD_CAT_ID   = 14699
ELEMENT_SET_NO = 999
REV_AT_EPOCH   = 27511
BSTAR          = .23535E-3
MEAN_MOTION_DOT = .5751E-4
MEAN_MOTION_DDOT = 0

CCSDS_OMM_VERS = 2.0
CREATION_DATE  = 
ORIGINATOR     = 

OBJECT_NAME    = SL-14 R/B
OBJECT_ID      = 1984-027B
CENTER_NAME    = EARTH
REF_FRAME      = TEME
TIME_SYSTEM    = UTC
MEAN_ELEMENT_THEORY = SGP/SGP4

EPOCH          = 2026-03-25T15:38:54.945312
MEAN_MOTION    = 14.85992360
ECCENTRICITY   = .0016491
INCLINATION    = 82.5409
RA_OF_ASC_NODE = 230.0399
ARG_OF_PERICENTER = 281.5821
MEAN_ANOMALY   = 78.3544

EPHEMERIS_TYPE = 0
CLASSIFICATION_TYPE = U
NORAD_CAT_ID   = 14820
ELEMENT_SET_NO = 999
REV_AT_EPOCH   = 25000
BSTAR          = .56047E-4
MEAN_MOTION_DOT = .515E-5
MEAN_MOTION_DDOT = 0

CCSDS_OMM_VERS = 2.0
CREATION_DATE  = 
ORIGINATOR     = 

OBJECT_NAME    = SL-8 R/B
OBJECT_ID      = 1985-006B
CENTER_NAME    = EARTH
REF_FRAME      = TEME
TIME_SYSTEM    = UTC
MEAN_ELEMENT_THEORY = SGP/SGP4

EPOCH          = 2026-03-25T10:50:01.740192
MEAN_MOTION    = 14.37794350
ECCENTRICITY   = .00178109
INCLINATION    = 74.0444
RA_OF_ASC_NODE = 232.1428
ARG_OF_PERICENTER = 145.5024
MEAN_ANOMALY   = 270.1591

EPHEMERIS_TYPE = 0
CLASSIFICATION_TYPE = U
NORAD_CAT_ID   = 15483
ELEMENT_SET_NO = 999
REV_AT_EPOCH   = 15629
BSTAR          = .11624805E-3
MEAN_MOTION_DOT = .325E-5
MEAN_MOTION_DDOT = 0

CCSDS_OMM_VERS = 2.0
CREATION_DATE  = 
ORIGINATOR     = 

OBJECT_NAME    = SL-12 R/B(2)
OBJECT_ID      = 1985-042D
CENTER_NAME    = EARTH
REF_FRAME      = TEME
TIME_SYSTEM    = UTC
MEAN_ELEMENT_THEORY = SGP/SGP4

EPOCH          = 2026-03-26T02:05:26.847456
MEAN_MOTION    = 14.21986920
ECCENTRICITY   = .0032856
INCLINATION    = 71.1080
RA_OF_ASC_NODE = 53.0826
ARG_OF_PERICENTER = 100.9551
MEAN_ANOMALY   = 332.4890

EPHEMERIS_TYPE = 0
CLASSIFICATION_TYPE = U
NORAD_CAT_ID   = 15772
ELEMENT_SET_NO = 999
REV_AT_EPOCH   = 11672
BSTAR          = .78089E-4
MEAN_MOTION_DOT = .126E-5
MEAN_MOTION_DDOT = 0

CCSDS_OMM_VERS = 2.0
CREATION_DATE  = 
ORIGINATOR     = 

OBJECT_NAME    = SL-14 R/B
OBJECT_ID      = 1985-069B
CENTER_NAME    = EARTH
REF_FRAME      = TEME
TIME_SYSTEM    = UTC
MEAN_ELEMENT_THEORY = SGP/SGP4

EPOCH          = 2026-03-26T00:51:37.520352
MEAN_MOTION    = 14.86450328
ECCENTRICITY   = .0019858
INCLINATION    = 82.5304
RA_OF_ASC_NODE = 9.5663
ARG_OF_PERICENTER = 134.7998
MEAN_ANOMALY   = 225.4837

EPHEMERIS_TYPE = 0
CLASSIFICATION_TYPE = U
NORAD_CAT_ID   = 15945
ELEMENT_SET_NO = 999
REV_AT_EPOCH   = 17526
BSTAR          = .53053E-4
MEAN_MOTION_DOT = .495E-5
MEAN_MOTION_DDOT = 0

CCSDS_OMM_VERS = 2.0
CREATION_DATE  = 
ORIGINATOR     = 

OBJECT_NAME    = SL-16 R/B
OBJECT_ID      = 1985-097B
CENTER_NAME    = EARTH
REF_FRAME      = TEME
TIME_SYSTEM    = UTC
MEAN_ELEMENT_THEORY = SGP/SGP4

EPOCH          = 2026-03-26T02:04:34.934016
MEAN_MOTION    = 14.16603325
ECCENTRICITY   = .0009505
INCLINATION    = 71.0009
RA_OF_ASC_NODE = 106.0330
ARG_OF_PERICENTER = 240.5626
MEAN_ANOMALY   = 181.6753

EPHEMERIS_TYPE = 0
CLASSIFICATION_TYPE = U
NORAD_CAT_ID   = 16182
ELEMENT_SET_NO = 999
REV_AT_EPOCH   = 8955
BSTAR          = .54944E-4
MEAN_MOTION_DOT = .62E-6
MEAN_MOTION_DDOT = 0

CCSDS_OMM_VERS = 2.0
CREATION_DATE  = 
ORIGINATOR     = 

OBJECT_NAME    = SL-14 R/B
OBJECT_ID      = 1986-006B
CENTER_NAME    = EARTH
REF_FRAME      = TEME
TIME_SYSTEM    = UTC
MEAN_ELEMENT_THEORY = SGP/SGP4

EPOCH          = 2026-03-25T22:35:38.342400
MEAN_MOTION    = 14.86838959
ECCENTRICITY   = .0075588
INCLINATION    = 82.5246
RA_OF_ASC_NODE = 244.4375
ARG_OF_PERICENTER = 217.9602
MEAN_ANOMALY   = 141.6275

EPHEMERIS_TYPE = 0
CLASSIFICATION_TYPE = U
NORAD_CAT_ID   = 16496
ELEMENT_SET_NO = 999
REV_AT_EPOCH   = 15162
BSTAR          = .87827E-4
MEAN_MOTION_DOT = .851E-5
MEAN_MOTION_DDOT = 0

CCSDS_OMM_VERS = 2.0
CREATION_DATE  = 
ORIGINATOR     = 

OBJECT_NAME    = COSMOS 1743
OBJECT_ID      = 1986-034A
CENTER_NAME    = EARTH
REF_FRAME      = TEME
TIME_SYSTEM    = UTC
MEAN_ELEMENT_THEORY = SGP/SGP4

EPOCH          = 2026-03-26T04:48:05.100192
MEAN_MOTION    = 15.59875785
ECCENTRICITY   = .0003726
INCLINATION    = 82.5305
RA_OF_ASC_NODE = 56.4844
ARG_OF_PERICENTER = 179.1804
MEAN_ANOMALY   = 180.9460

EPHEMERIS_TYPE = 0
CLASSIFICATION_TYPE = U
NORAD_CAT_ID   = 16719
ELEMENT_SET_NO = 999
REV_AT_EPOCH   = 18282
BSTAR          = .52563E-3
MEAN_MOTION_DOT = .42433E-3
MEAN_MOTION_DDOT = 0

